{"type": "FeatureCollection", "features": [ {"type": "Feature", "properties": {"norad_id": 39634, "name": "SENTINEL-1A", "group": "resource", "lat": -66.91213564536463, "lon": 24.095864490184326, "alt_km": 703.7743574953247, "timestamp": "2025-12-25T07:41:09.379971+00:00", "meta": {"OBJECT_NAME": "SENTINEL-1A", "OBJECT_ID": "2014-016A", "EPOCH": "2025-12-24T23:46:12.472896", "MEAN_MOTION": 14.59199333, "ECCENTRICITY": 0.00012086, "INCLINATION": 98.1801, "RA_OF_ASC_NODE": 4.0504, "ARG_OF_PERICENTER": 87.596, "MEAN_ANOMALY": 272.5378, "EPHEMERIS_TYPE": 0, "CLASSIFICATION_TYPE": "U", "NORAD_CAT_ID": 39634, "ELEMENT_SET_NO": 999, "REV_AT_EPOCH": 62461, "BSTAR": -3.8834701e-05, "MEAN_MOTION_DOT": -2.29e-06, "MEAN_MOTION_DDOT": 0}, "tle": {"line1": "1 39634U 14016A   25358.99042214 -.00000229  00000+0 -38835-4 0  9996", "line2": "2 39634  98.1801   4.0504 0001208  87.5960 272.5378 14.59199333624613"}}, "geometry": {"type": "Point", "coordinates": [24.095864490184326, -66.91213564536463]}}, {"type": "Feature", "properties": {"norad_id": 39731, "name": "KAZEOSAT 1", "group": "resource", "lat": -31.192537853201262, "lon": -114.15186187145729, "alt_km": 758.053491461842, "timestamp": "2025-12-25T07:41:09.379982+00:00", "meta": {"OBJECT_NAME": "KAZEOSAT 1", "OBJECT_ID": "2014-024A", "EPOCH": "2025-12-24T22:22:56.132832", "MEAN_MOTION": 14.42068845, "ECCENTRICITY": 0.00012238, "INCLINATION": 98.3418, "RA_OF_ASC_NODE": 70.5658, "ARG_OF_PERICENTER": 96.9437, "MEAN_ANOMALY": 263.1892, "EPHEMERIS_TYPE": 0, "CLASSIFICATION_TYPE": "U", "NORAD_CAT_ID": 39731, "ELEMENT_SET_NO": 999, "REV_AT_EPOCH": 61344, "BSTAR": 5.3586907e-05, "MEAN_MOTION_DOT": 1.33e-06, "MEAN_MOTION_DDOT": 0}, "tle": {"line1": "1 39731U 14024A   25358.93259413  .00000133  00000+0  53587-4 0  9991", "line2": "2 39731  98.3418  70.5658 0001223  96.9437 263.1892 14.42068845613446"}}, "geometry": {"type": "Point", "coordinates": [-114.15186187145729, -31.192537853201262]}}, {"type": "Feature", "properties": {"norad_id": 39766, "name": "ALOS-2", "group": "resource", "lat": -13.245884767370727, "lon": 95.86571152122038, "alt_km": 635.9489372970565, "timestamp": "2025-12-25T07:41:09.379992+00:00", "meta": {"OBJECT_NAME": "ALOS-2", "OBJECT_ID": "2014-029A", "EPOCH": "2025-12-24T23:37:49.057248", "MEAN_MOTION": 14.79466578, "ECCENTRICITY": 0.0001364, "INCLINATION": 97.9226, "RA_OF_ASC_NODE": 93.6564, "ARG_OF_PERICENTER": 101.0923, "MEAN_ANOMALY": 259.0442, "EPHEMERIS_TYPE": 0, "CLASSIFICATION_TYPE": "U", "NORAD_CAT_ID": 39766, "ELEMENT_SET_NO": 999, "REV_AT_EPOCH": 62582, "BSTAR": 0.00043861, "MEAN_MOTION_DOT": 3.225e-05, "MEAN_MOTION_DDOT": 0}, "tle": {"line1": "1 39766U 14029A   25358.98459557  .00003225  00000+0  43861-3 0  9998", "line2": "2 39766  97.9226  93.6564 0001364 101.0923 259.0442 14.79466578625827"}}, "geometry": {"type": "Point", "coordinates": [95.86571152122038, -13.245884767370727]}}, {"type": "Feature", "properties": {"norad_id": 40010, "name": "KAZEOSAT 2", "group": "resource", "lat": 24.978869003400185, "lon": 26.52733620802347, "alt_km": 606.3016583229337, "timestamp": "2025-12-25T07:41:09.380002+00:00", "meta": {"OBJECT_NAME": "KAZEOSAT 2", "OBJECT_ID": "2014-033A", "EPOCH": "2025-12-24T22:54:25.256736", "MEAN_MOTION": 14.85189482, "ECCENTRICITY": 0.00086823, "INCLINATION": 97.5496, "RA_OF_ASC_NODE": 202.6384, "ARG_OF_PERICENTER": 164.3015, "MEAN_ANOMALY": 195.8472, "EPHEMERIS_TYPE": 0, "CLASSIFICATION_TYPE": "U", "NORAD_CAT_ID": 40010, "ELEMENT_SET_NO": 999, "REV_AT_EPOCH": 62309, "BSTAR": 0.00013745115, "MEAN_MOTION_DOT": 1.128e-05, "MEAN_MOTION_DDOT": 0}, "tle": {"line1": "1 40010U 14033A   25358.95445899  .00001128  00000+0  13745-3 0  9996", "line2": "2 40010  97.5496 202.6384 0008682 164.3015 195.8472 14.85189482623092"}}, "geometry": {"type": "Point", "coordinates": [26.52733620802347, 24.978869003400185]}}, {"type": "Feature", "properties": {"norad_id": 40011, "name": "HODOYOSHI-4", "group": "resource", "lat": -12.428704610539945, "lon": -170.74298162009583, "alt_km": 626.8014293597944, "timestamp": "2025-12-25T07:41:09.380012+00:00", "meta": {"OBJECT_NAME": "HODOYOSHI-4", "OBJECT_ID": "2014-033B", "EPOCH": "2025-12-24T23:40:13.173312", "MEAN_MOTION": 14.87524623, "ECCENTRICITY": 0.00240913, "INCLINATION": 97.5411, "RA_OF_ASC_NODE": 187.2666, "ARG_OF_PERICENTER": 159.8188, "MEAN_ANOMALY": 200.3987, "EPHEMERIS_TYPE": 0, "CLASSIFICATION_TYPE": "U", "NORAD_CAT_ID": 40011, "ELEMENT_SET_NO": 999, "REV_AT_EPOCH": 62290, "BSTAR": 0.000220547, "MEAN_MOTION_DOT": 1.959e-05, "MEAN_MOTION_DDOT": 0}, "tle": {"line1": "1 40011U 14033B   25358.98626358  .00001959  00000+0  22055-3 0  9997", "line2": "2 40011  97.5411 187.2666 0024091 159.8188 200.3987 14.87524623622907"}}, "geometry": {"type": "Point", "coordinates": [-170.74298162009583, -12.428704610539945]}}, {"type": "Feature", "properties": {"norad_id": 40013, "name": "DEIMOS-2", "group": "resource", "lat": 33.01103272438011, "lon": -130.27408638893633, "alt_km": 586.2445985088925, "timestamp": "2025-12-25T07:41:09.380022+00:00", "meta": {"OBJECT_NAME": "DEIMOS-2", "OBJECT_ID": "2014-033D", "EPOCH": "2025-12-24T21:53:10.459104", "MEAN_MOTION": 14.93023497, "ECCENTRICITY": 0.00013716, "INCLINATION": 97.6053, "RA_OF_ASC_NODE": 234.3111, "ARG_OF_PERICENTER": 106.5291, "MEAN_ANOMALY": 253.6079, "EPHEMERIS_TYPE": 0, "CLASSIFICATION_TYPE": "U", "NORAD_CAT_ID": 40013, "ELEMENT_SET_NO": 999, "REV_AT_EPOCH": 61171, "BSTAR": 0.00022203111, "MEAN_MOTION_DOT": 2.255e-05, "MEAN_MOTION_DDOT": 0}, "tle": {"line1": "1 40013U 14033D   25358.91192661  .00002255  00000+0  22203-3 0  9992", "line2": "2 40013  97.6053 234.3111 0001371 106.5291 253.6079 14.93023497611711"}}, "geometry": {"type": "Point", "coordinates": [-130.27408638893633, 33.01103272438011]}}, {"type": "Feature", "properties": {"norad_id": 40015, "name": "HODOYOSHI-3", "group": "resource", "lat": 27.864870552794347, "lon": -11.332167309735302, "alt_km": 599.3379015153278, "timestamp": "2025-12-25T07:41:09.380033+00:00", "meta": {"OBJECT_NAME": "HODOYOSHI-3", "OBJECT_ID": "2014-033F", "EPOCH": "2025-12-24T21:17:55.130496", "MEAN_MOTION": 14.84847165, "ECCENTRICITY": 0.00325079, "INCLINATION": 97.6207, "RA_OF_ASC_NODE": 164.1949, "ARG_OF_PERICENTER": 206.6693, "MEAN_ANOMALY": 153.2851, "EPHEMERIS_TYPE": 0, "CLASSIFICATION_TYPE": "U", "NORAD_CAT_ID": 40015, "ELEMENT_SET_NO": 999, "REV_AT_EPOCH": 62175, "BSTAR": 0.00020552408, "MEAN_MOTION_DOT": 1.71e-05, "MEAN_MOTION_DDOT": 0}, "tle": {"line1": "1 40015U 14033F   25358.88744364  .00001710  00000+0  20552-3 0  9993", "line2": "2 40015  97.6207 164.1949 0032507 206.6693 153.2851 14.84847165621750"}}, "geometry": {"type": "Point", "coordinates": [-11.332167309735302, 27.864870552794347]}}, {"type": "Feature", "properties": {"norad_id": 40053, "name": "SPOT 7", "group": "resource", "lat": -45.48819059795886, "lon": -127.21261099421348, "alt_km": 698.3940785338818, "timestamp": "2025-12-25T07:41:09.380043+00:00", "meta": {"OBJECT_NAME": "SPOT 7", "OBJECT_ID": "2014-034A", "EPOCH": "2025-12-24T22:26:05.116416", "MEAN_MOTION": 14.60747706, "ECCENTRICITY": 0.00015468, "INCLINATION": 98.0886, "RA_OF_ASC_NODE": 60.7283, "ARG_OF_PERICENTER": 82.7453, "MEAN_ANOMALY": 277.3924, "EPHEMERIS_TYPE": 0, "CLASSIFICATION_TYPE": "U", "NORAD_CAT_ID": 40053, "ELEMENT_SET_NO": 999, "REV_AT_EPOCH": 61169, "BSTAR": 7.1723674e-05, "MEAN_MOTION_DOT": 3.04e-06, "MEAN_MOTION_DDOT": 0}, "tle": {"line1": "1 40053U 14034A   25358.93478144  .00000304  00000+0  71724-4 0  9998", "line2": "2 40053  98.0886  60.7283 0001546  82.7453 277.3924 14.60747706611693"}}, "geometry": {"type": "Point", "coordinates": [-127.21261099421348, -45.48819059795886]}}, {"type": "Feature", "properties": {"norad_id": 40072, "name": "SKYSAT-B", "group": "resource", "lat": -73.20387196173671, "lon": -27.141771202027826, "alt_km": 618.1453953124947, "timestamp": "2025-12-25T07:41:09.380058+00:00", "meta": {"OBJECT_NAME": "SKYSAT-B", "OBJECT_ID": "2014-037D", "EPOCH": "2025-12-24T14:15:52.515648", "MEAN_MOTION": 14.8736794, "ECCENTRICITY": 0.00068222, "INCLINATION": 98.3628, "RA_OF_ASC_NODE": 302.9274, "ARG_OF_PERICENTER": 117.0616, "MEAN_ANOMALY": 243.1296, "EPHEMERIS_TYPE": 0, "CLASSIFICATION_TYPE": "U", "NORAD_CAT_ID": 40072, "ELEMENT_SET_NO": 999, "REV_AT_EPOCH": 62000, "BSTAR": 0.00019301045, "MEAN_MOTION_DOT": 1.684e-05, "MEAN_MOTION_DDOT": 0}, "tle": {"line1": "1 40072U 14037D   25358.59435782  .00001684  00000+0  19301-3 0  9999", "line2": "2 40072  98.3628 302.9274 0006822 117.0616 243.1296 14.87367940620002"}}, "geometry": {"type": "Point", "coordinates": [-27.141771202027826, -73.20387196173671]}}, {"type": "Feature", "properties": {"norad_id": 40115, "name": "WORLDVIEW-3 (WV-3)", "group": "resource", "lat": 67.90554555449876, "lon": 51.507797930892714, "alt_km": 607.2634398781111, "timestamp": "2025-12-25T07:41:09.380071+00:00", "meta": {"OBJECT_NAME": "WORLDVIEW-3 (WV-3)", "OBJECT_ID": "2014-048A", "EPOCH": "2025-12-24T21:40:11.764416", "MEAN_MOTION": 14.84674822, "ECCENTRICITY": 0.00020325, "INCLINATION": 97.8764, "RA_OF_ASC_NODE": 71.0345, "ARG_OF_PERICENTER": 129.448, "MEAN_ANOMALY": 230.6915, "EPHEMERIS_TYPE": 0, "CLASSIFICATION_TYPE": "U", "NORAD_CAT_ID": 40115, "ELEMENT_SET_NO": 999, "REV_AT_EPOCH": 61604, "BSTAR": 0.00013449526, "MEAN_MOTION_DOT": 1.085e-05, "MEAN_MOTION_DDOT": 0}, "tle": {"line1": "1 40115U 14048A   25358.90291394  .00001085  00000+0  13450-3 0  9997", "line2": "2 40115  97.8764  71.0345 0002032 129.4480 230.6915 14.84674822616048"}}, "geometry": {"type": "Point", "coordinates": [51.507797930892714, 67.90554555449876]}}]}